{"epoch":1784762836,"count":18316,"objects":[{"id":"42965","name":"QZS-4","type":"PAYLOAD","l1":"1 42965U 17062A   26202.25726799 -.00000358  00000-0  00000-0 0  9998","l2":"2 42965  40.0879 343.0509 0746939 268.6822 279.3148  1.00289434 32147"},{"id":"43683","name":"BEIDOU 3G1","type":"PAYLOAD","l1":"1 43683U 18085A   26203.58204098 -.00000107  00000-0  00000-0 0  9994","l2":"2 43683   2.9560  96.4144 0008313 357.3143 216.1265  1.00272967 28419"},{"id":"44624","name":"EUTE 5W B","type":"PAYLOAD","l1":"1 44624U 19067A   26203.32820803 -.00000039  00000-0  00000-0 0  9995","l2":"2 44624   0.0733 326.0758 0003259 153.3120 293.8288  1.00271991 24781"},{"id":"45344","name":"BEIDOU 3 G2","type":"PAYLOAD","l1":"1 45344U 20017A   26203.63015752 -.00000139  00000-0  00000-0 0  9996","l2":"2 45344   2.9347  47.8452 0002085  57.4791 141.9368  1.00272691 23617"},{"id":"45807","name":"BEIDOU 3 G3","type":"PAYLOAD","l1":"1 45807U 20040A   26203.63622421 -.00000352  00000-0  00000-0 0  9990","l2":"2 45807   2.5325  67.5045 0002294 316.0842 256.3813  1.00273366 22427"},{"id":"46114","name":"GALAXY 30","type":"PAYLOAD","l1":"1 46114U 20056C   26203.50461384  .00000041  00000-0  00000-0 0  9998","l2":"2 46114   0.0150  70.1395 0002230  47.1977 239.5623  1.00271306 21644"},{"id":"49336","name":"QZS-1R","type":"PAYLOAD","l1":"1 49336U 21096A   26200.56101544 -.00000322  00000-0  00000-0 0  9997","l2":"2 49336  37.5263  79.1015 0755512 272.3091 279.1178  1.00244085 17338"},{"id":"62876","name":"QZS-6","type":"PAYLOAD","l1":"1 62876U 25023A   26203.59193914 -.00000230  00000-0  00000-0 0  9991","l2":"2 62876   0.0176  52.2260 0002059  62.8136 128.8871  1.00273977  5303"}]}